[{"OBJECT_NAME":"AEROCUBE 8C","OBJECT_ID":"2016-067F","EPOCH":"2026-03-09T13:42:34.002432","MEAN_MOTION":15.23097058,"ECCENTRICITY":0.0006461,"INCLINATION":98.0696,"RA_OF_ASC_NODE":288.5487,"ARG_OF_PERICENTER":53.7064,"MEAN_ANOMALY":306.4766,"EPHEMERIS_TYPE":0,"CLASSIFICATION_TYPE":"U","NORAD_CAT_ID":41853,"ELEMENT_SET_NO":999,"REV_AT_EPOCH":51089,"BSTAR":0.00041541,"MEAN_MOTION_DOT":9.726e-5,"MEAN_MOTION_DDOT":0},{"OBJECT_NAME":"OBJECT G","OBJECT_ID":"2025-055G","EPOCH":"2026-03-09T23:08:21.696000","MEAN_MOTION":15.22125156,"ECCENTRICITY":0.00098901,"INCLINATION":97.6329,"RA_OF_ASC_NODE":210.2777,"ARG_OF_PERICENTER":141.6478,"MEAN_ANOMALY":218.5462,"EPHEMERIS_TYPE":0,"CLASSIFICATION_TYPE":"U","NORAD_CAT_ID":63297,"ELEMENT_SET_NO":999,"REV_AT_EPOCH":5412,"BSTAR":0.0009330302,"MEAN_MOTION_DOT":0.00021381,"MEAN_MOTION_DDOT":0}]
